ESTCUBE 1               
1 39161U 13021C   21113.78112325  .00000288  00000-0  53134-4 0  9992
2 39161  97.9378 196.2258 0009058 334.0017  26.0724 14.72459929427701
FENGYUN 3C              
1 39260U 13052A   21113.86216929 -.00000009  00000-0  16380-4 0  9994
2 39260  98.5055 157.0604 0012045  47.9568 312.2622 14.15865311392544
CASSIOPE                
1 39265U 13055A   21113.17334513  .00005398  00000-0  14830-3 0  9998
2 39265  80.9688 350.1084 0651411 116.0309 250.9430 14.31851622392061
ZACUBE-1 (TSHEPISOSAT)  
1 39417U 13066B   21112.93175193  .00000477  00000-0  65635-4 0  9992
2 39417  97.5904 100.1450 0058263 344.7273  15.2179 14.81483298400855
CINEMA-3 (KHUSAT-2)     
1 39426U 13066L   21113.65848800  .00000198  00000-0  38343-4 0  9990
2 39426  97.7505  68.3266 0105034 140.1883 220.7090 14.69659109397872
TRITON-1                
1 39427U 13066M   21113.79585263  .00000252  00000-0  47850-4 0  9991
2 39427  97.7704  64.2903 0113641 165.0295 195.4321 14.68203707397393
DELFI-N3XT              
1 39428U 13066N   21113.75327475  .00000445  00000-0  77909-4 0  9999
2 39428  97.7756  62.7037 0119676 178.0074 182.1633 14.67954137397124
GOMX-1                  
1 39430U 13066Q   21113.82676310  .00000444  00000-0  89534-4 0  9991
2 39430  97.8122  40.0346 0149233 287.2707  71.2211 14.59588063395079
BRITE-PL1 (LEM)         
1 39431U 13066R   21113.21025405  .00000093  00000-0  29291-4 0  9992
2 39431  97.7593 357.9124 0203511  89.5745 272.8765 14.47131599391782
ICUBE-1                 
1 39432U 13066S   21113.52344001  .00000515  00000-0  57261-4 0  9990
2 39432  97.4790 134.4447 0030655 224.0539 135.8238 14.90836549403332
HUMSAT-D                
1 39433U 13066T   21113.55406341  .00000913  00000-0  92710-4 0  9990
2 39433  97.4750 141.2708 0029804 202.7954 157.1945 14.92832308403730
VELOX-PII               
1 39438U 13066Y   21113.67301617  .00000385  00000-0  57784-4 0  9993
2 39438  97.6385  91.3997 0071048  24.9081 335.5532 14.78193880400110
FIRST-MOVE              
1 39439U 13066Z   21113.68048744  .00000897  00000-0  11420-3 0  9998
2 39439  97.5962 102.1864 0064251 340.3111  19.5623 14.82538879400927
CUBEBUG-2 (LO-74)       
1 39440U 13066AA  21113.41389505  .00000421  00000-0  64762-4 0  9995
2 39440  97.6717  85.4905 0081204  54.7211 306.1561 14.76211351399504
NEE-02 KRYSAOR          
1 39441U 13066AB  21113.16500094  .00000290  00000-0  47857-4 0  9996
2 39441  97.6810  82.6186 0082939  66.0773 294.9097 14.75158933398067
FUNCUBE-1 (AO-73)       
1 39444U 13066AE  21113.21974645  .00000538  00000-0  71757-4 0  9993
2 39444  97.5815 102.7711 0057025 334.3857  25.4534 14.82383812399848
HINCUBE                 
1 39445U 13066AF  21113.22141242  .00000526  00000-0  70645-4 0  9996
2 39445  97.5829 102.6258 0057099 336.1689  23.6882 14.82214602399388
UWE-3                   
1 39446U 13066AG  21113.21014685  .00000463  00000-0  67376-4 0  9993
2 39446  97.6330  92.2851 0070320  20.6885 339.7149 14.78749201398340
AIST-1 (RS-41)          
1 39492U 13078C   21113.81636155  .00000309  00000-0  30816-4 0  9993
2 39492  82.4162 277.9464 0021406  58.4571 301.8733 14.88016934397372
SPROUT                  
1 39770U 14029E   21113.82023768  .00001642  00000-0  18339-3 0  9996
2 39770  97.9091 225.1640 0009734  35.3917 324.7922 14.88336985375216
UNISAT-6                
1 40012U 14033C   21113.11872889  .00000304  00000-0  51870-4 0  9992
2 40012  97.6813 318.4346 0059626  79.5801 281.2121 14.74285665368046
BUGSAT-1 (TITA)         
1 40014U 14033E   21113.90096150  .00001351  00000-0  12590-3 0  9998
2 40014  98.1058  91.5132 0031557 348.5639  11.4861 14.95717116373413
DUCHIFAT-1              
1 40021U 14033M   21113.71743326  .00000826  00000-0  88763-4 0  9991
2 40021  97.9689  53.3431 0012652 351.8225   8.2785 14.91281034372126
NANOSATC-BR1            
1 40024U 14033Q   21113.78436518  .00000551  00000-0  62493-4 0  9990
2 40024  97.9486  48.6837 0012119 357.3541   2.7610 14.90388656371976
QB50P1                  
1 40025U 14033R   21113.06186936  .00000506  00000-0  59163-4 0  9998
2 40025  97.9311  43.6115 0012623   7.9107 352.2307 14.89398774371172
DTUSAT-2                
1 40030U 14033W   21113.78710304  .00000414  00000-0  50027-4 0  9993
2 40030  97.9149  41.0511 0011949   2.3076 357.8194 14.88954584371691
QB50P2                  
1 40032U 14033Y   21113.07667775  .00000519  00000-0  61306-4 0  9998
2 40032  97.9154  40.3469 0011972   5.4241 354.7103 14.88909903371058
POLYITAN-1              
1 40042U 14033AJ  21113.77831795  .00000544  00000-0  63473-4 0  9996
2 40042  97.9403  45.0890 0014589 355.8688   4.2406 14.89200114371681
TIGRISAT                
1 40043U 14033AK  21113.08317059  .00000239  00000-0  42090-4 0  9996
2 40043  97.6785 319.7930 0061274  77.7133 283.0928 14.74513480367673
AISAT                   
1 40054U 14034B   21113.65442023  .00000665  00000-0  98981-4 0  9995
2 40054  98.3151 264.9347 0012112 213.8071 146.2368 14.78371144367439
CANX-4                  
1 40055U 14034C   21113.60877354  .00000168  00000-0  32952-4 0  9994
2 40055  98.2969 253.4928 0012975 252.8977 107.0810 14.75036396366855
CANX-5                  
1 40056U 14034D   21113.61327619  .00000169  00000-0  33140-4 0  9991
2 40056  98.2969 253.4844 0012988 253.1571 106.8212 14.75027513366855
VELOX-I                 
1 40057U 14034E   21113.70300286  .00000584  00000-0  88368-4 0  9996
2 40057  98.3203 266.0080 0009852 227.4782 132.5596 14.78134378367453
METEOR-M 2              
1 40069U 14037A   21113.71223450 -.00000061  00000-0 -88194-5 0  9990
2 40069  98.4667 144.9177 0007031  99.2443 260.9522 14.20683008352262
DX1                     
1 40071U 14037C   21113.81130971  .00000221  00000-0  35698-4 0  9995
2 40071  98.4572 315.4550 0007486 216.8975 143.1729 14.81481388367206
UKUBE-1                 
1 40074U 14037F   21113.85123165  .00000551  00000-0  72531-4 0  9992
2 40074  98.4367 326.4884 0003841 187.4064 172.7063 14.84517795367806
FIREBIRD 3              
1 40377U 15003B   21113.46808821  .00002620  00000-0  98729-4 0  9994
2 40377  99.0900 243.2295 0118274 357.6658   2.4006 15.22079575344433
FIREBIRD 4              
1 40378U 15003C   21113.31481415  .00002476  00000-0  93356-4 0  9995
2 40378  99.0903 243.1762 0118355 358.0132   2.0613 15.22128820344413
GRIFEX                  
1 40379U 15003D   21113.75638291  .00002093  00000-0  87677-4 0  9994
2 40379  99.0865 233.4975 0129315  27.8295 332.9773 15.17844497343890
CP10 (EXOCUBE)          
1 40380U 15003E   21113.07611540  .00002113  00000-0  92978-4 0  9992
2 40380  99.0879 227.3348 0135266  48.2601 313.0099 15.15556139343424
DEORBITSAIL             
1 40719U 15032E   21113.20582331  .00000553  00000-0  84895-4 0  9995
2 40719  97.8351 359.6236 0014882 289.1823  70.7777 14.77315286311820
NUDT-PHONESAT           
1 40900U 15049B   21113.83163177  .00005476  00000-0  21507-3 0  9996
2 40900  97.4238 128.3142 0011331 340.9322 103.9171 15.26062845310499
XW-2A                   
1 40903U 15049E   21113.90928448  .00004654  00000-0  10067-3 0  9993
2 40903  97.2422 168.5528 0011513 206.0847 271.4912 15.44922616314371
XW-2C                   
1 40906U 15049H   21113.73938891  .00001685  00000-0  89390-4 0  9997
2 40906  97.4869 116.7808 0015308  24.0999  86.5653 15.16642118309274
XW-2D                   
1 40907U 15049J   21113.87211531  .00001852  00000-0  97095-4 0  9995
2 40907  97.4862 116.6880 0014574  20.6273  63.5891 15.16949905309327
LILACSAT-2              
1 40908U 15049K   21113.95996492  .00000744  00000-0  44021-4 0  9991
2 40908  97.5049 114.6979 0016943  33.0699 357.1408 15.14380239308989
XW-2E                   
1 40909U 15049L   21113.91486513  .00002506  00000-0  12154-3 0  9995
2 40909  97.4675 120.6695 0013438   8.3881  80.2431 15.19368649309651
XW-2F                   
1 40910U 15049M   21113.84048791  .00002434  00000-0  11978-3 0  9994
2 40910  97.4736 119.6711 0014623   7.6919 113.8762 15.18870364309436
XW-2B                   
1 40911U 15049N   21113.87194428  .00001881  00000-0  98781-4 0  9990
2 40911  97.4866 117.3764 0014556  21.6249  62.6763 15.16868242309219
KAITUO 1B               
1 40912U 15049P   21113.86239763  .00002831  00000-0  12911-3 0  9998
2 40912  97.4473 124.0522 0013824 340.7815 139.2609 15.21387309309892
TIANWANG 1A (TW-1A)     
1 40928U 15051D   21113.69674959  .00007558  00000-0  16010-3 0  9994
2 40928  97.0822 139.9231 0011304 126.4130 329.0969 15.45305620313238
LAPAN-A2                
1 40931U 15052B   21112.14754832  .00000481  00000-0 -22197-4 0  9990
2 40931   5.9963 293.9413 0013182 329.8562  30.1221 14.76669011300960
LQSAT                   
1 40958U 15057A   21113.79929709  .00000055  00000-0  16015-4 0  9991
2 40958  97.8077 172.3141 0016811 229.5947 130.3787 14.73168722298199
ATHENOXAT 1             
1 41168U 15077C   21113.90044263  .00004106  00000-0  17414-3 0  9997
2 41168  14.9908 302.0327 0010326 132.9331 264.7194 15.15512073296497
GALASSIA                
1 41170U 15077E   21113.75384128  .00002897  00000-0  11140-3 0  9995
2 41170  14.9892 293.9579 0012149 160.2612 199.8180 15.15737019296548
VELOX-II                
1 41171U 15077F   21113.30536143  .00002178  00000-0  83881-4 0  9997
2 41171  14.9924 352.7505 0008486  27.6605 332.4167 15.12429652295935
CHUBUSAT-2              
1 41338U 16012B   21113.58721750  .00000500  00000-0  31941-4 0  9999
2 41338  31.0021 174.7827 0013718 309.9029  50.0400 15.00499362284356
CHUBUSAT-3              
1 41339U 16012C   21113.54914439  .00000594  00000-0  39084-4 0  9993
2 41339  31.0102 172.3105 0013728 317.4689  42.4879 15.00650143284347
HORYU-4                 
1 41340U 16012D   21113.19001696  .00000747  00000-0  49264-4 0  9999
2 41340  31.0039 158.8413 0013808 343.9991  16.0207 15.01839401284471
